CIC_OEM_VERS = 2.0
CREATION_DATE  = 2023-03-26T22:48:30.692
ORIGINATOR     = TOLOSAT

META_START

COMMENT days (MJD), sec (UTC), x (km), y (km), z (km), vx (km/s), vy (km/s), vz (km/s)

OBJECT_NAME = IRIDIUM 148
OBJECT_ID = IRIDIUM 148

CENTER_NAME = EARTH
REF_FRAME   = EME2000
TIME_SYSTEM = TAI
START_TIME = 2024-01-02T11:59:55.000
STOP_TIME = 2024-01-03T11:59:55.000

META_STOP
60311 43232.0 -1922.169992  -698.800091 -6857.967697 -6.707384 -2.460461  2.132175
60311 43242.0 -1989.138584  -723.366435 -6836.274186 -6.686213 -2.452763  2.206489
60311 43252.0 -2055.891842  -747.854471 -6813.838709 -6.664318 -2.444800  2.280567
60311 43262.0 -2122.422529  -772.261546 -6790.663669 -6.641700 -2.436571  2.354400
60311 43272.0 -2188.723432  -796.585015 -6766.751547 -6.618361 -2.428079  2.427982
60311 43282.0 -2254.787363  -820.822239 -6742.104904 -6.594305 -2.419322  2.501303
60311 43292.0 -2320.607158  -844.970590 -6716.726382 -6.569534 -2.410304  2.574356
60311 43302.0 -2386.175677  -869.027450 -6690.618700 -6.544051 -2.401024  2.647134
60311 43312.0 -2451.485808  -892.990208 -6663.784656 -6.517857 -2.391484  2.719627
60311 43322.0 -2516.530467  -916.856265 -6636.227127 -6.490957 -2.381684  2.791829
60311 43332.0 -2581.302594  -940.623032 -6607.949068 -6.463352 -2.371626  2.863732
60311 43342.0 -2645.795163  -964.287930 -6578.953512 -6.435045 -2.361311  2.935327
60311 43352.0 -2710.001172  -987.848389 -6549.243570 -6.406040 -2.350739  3.006608
60311 43362.0 -2773.913651 -1011.301853 -6518.822428 -6.376340 -2.339912  3.077566
60311 43372.0 -2837.525663 -1034.645775 -6487.693352 -6.345947 -2.328831  3.148194
60311 43382.0 -2900.830299 -1057.877620 -6455.859683 -6.314865 -2.317497  3.218483
60311 43392.0 -2963.820684 -1080.994866 -6423.324839 -6.283098 -2.305911  3.288427
60311 43402.0 -3026.489977 -1103.995001 -6390.092312 -6.250647 -2.294075  3.358018
60311 43412.0 -3088.831368 -1126.875526 -6356.165673 -6.217518 -2.281989  3.427249
60311 43422.0 -3150.838083 -1149.633956 -6321.548566 -6.183713 -2.269656  3.496111
60311 43432.0 -3212.503385 -1172.267817 -6286.244709 -6.149236 -2.257076  3.564597
60311 43442.0 -3273.820570 -1194.774649 -6250.257898 -6.114090 -2.244250  3.632701
60311 43452.0 -3334.782972 -1217.152005 -6213.592000 -6.078280 -2.231181  3.700413
60311 43462.0 -3395.383962 -1239.397452 -6176.250957 -6.041808 -2.217868  3.767728
60311 43472.0 -3455.616950 -1261.508571 -6138.238785 -6.004680 -2.204315  3.834638
60311 43482.0 -3515.475383 -1283.482956 -6099.559572 -5.966898 -2.190522  3.901135
60311 43492.0 -3574.952750 -1305.318217 -6060.217479 -5.928467 -2.176491  3.967213
60311 43502.0 -3634.042578 -1327.011978 -6020.216738 -5.889391 -2.162222  4.032863
60311 43512.0 -3692.738436 -1348.561878 -5979.561656 -5.849674 -2.147719  4.098080
60311 43522.0 -3751.033935 -1369.965571 -5938.256607 -5.809320 -2.132981  4.162856
60311 43532.0 -3808.922728 -1391.220727 -5896.306040 -5.768333 -2.118011  4.227183
60311 43542.0 -3866.398510 -1412.325031 -5853.714471 -5.726719 -2.102811  4.291055
60311 43552.0 -3923.455022 -1433.276185 -5810.486488 -5.684480 -2.087382  4.354464
60311 43562.0 -3980.086047 -1454.071905 -5766.626749 -5.641622 -2.071725  4.417405
60311 43572.0 -4036.285414 -1474.709926 -5722.139979 -5.598149 -2.055842  4.479869
60311 43582.0 -4092.046999 -1495.187999 -5677.030973 -5.554066 -2.039735  4.541851
60311 43592.0 -4147.364723 -1515.503892 -5631.304593 -5.509378 -2.023406  4.603343
60311 43602.0 -4202.232555 -1535.655390 -5584.965771 -5.464089 -2.006857  4.664338
60311 43612.0 -4256.644511 -1555.640294 -5538.019503 -5.418204 -1.990088  4.724831
60311 43622.0 -4310.594657 -1575.456426 -5490.470853 -5.371727 -1.973102  4.784814
60311 43632.0 -4364.077105 -1595.101623 -5442.324952 -5.324665 -1.955901  4.844280
60311 43642.0 -4417.086021 -1614.573741 -5393.586994 -5.277022 -1.938487  4.903224
60311 43652.0 -4469.615618 -1633.870656 -5344.262242 -5.228802 -1.920861  4.961638
60311 43662.0 -4521.660162 -1652.990261 -5294.356019 -5.180012 -1.903025  5.019517
60311 43672.0 -4573.213970 -1671.930468 -5243.873714 -5.130656 -1.884982  5.076853
60311 43682.0 -4624.271411 -1690.689208 -5192.820781 -5.080739 -1.866732  5.133641
60311 43692.0 -4674.826909 -1709.264433 -5141.202734 -5.030268 -1.848279  5.189875
60311 43702.0 -4724.874938 -1727.654113 -5089.025150 -4.979247 -1.829624  5.245548
60311 43712.0 -4774.410031 -1745.856239 -5036.293669 -4.927681 -1.810768  5.300654
60311 43722.0 -4823.426771 -1763.868820 -4983.013990 -4.875577 -1.791715  5.355186
60311 43732.0 -4871.919800 -1781.689887 -4929.191875 -4.822940 -1.772466  5.409140
60311 43742.0 -4919.883815 -1799.317492 -4874.833143 -4.769775 -1.753023  5.462509
60311 43752.0 -4967.313569 -1816.749707 -4819.943674 -4.716089 -1.733388  5.515286
60311 43762.0 -5014.203873 -1833.984623 -4764.529406 -4.661886 -1.713564  5.567467
60311 43772.0 -5060.549596 -1851.020356 -4708.596337 -4.607174 -1.693552  5.619046
60311 43782.0 -5106.345664 -1867.855040 -4652.150519 -4.551957 -1.673354  5.670016
60311 43792.0 -5151.587065 -1884.486833 -4595.198063 -4.496241 -1.652974  5.720372
60311 43802.0 -5196.268844 -1900.913914 -4537.745136 -4.440033 -1.632412  5.770109
60311 43812.0 -5240.386107 -1917.134483 -4479.797959 -4.383339 -1.611672  5.819221
60311 43822.0 -5283.934020 -1933.146763 -4421.362811 -4.326164 -1.590755  5.867703
60311 43832.0 -5326.907813 -1948.949000 -4362.446021 -4.268516 -1.569664  5.915549
60311 43842.0 -5369.302774 -1964.539462 -4303.053975 -4.210399 -1.548400  5.962753
60311 43852.0 -5411.114257 -1979.916439 -4243.193110 -4.151821 -1.526967  6.009312
60311 43862.0 -5452.337676 -1995.078246 -4182.869914 -4.092787 -1.505367  6.055218
60311 43872.0 -5492.968510 -2010.023220 -4122.090930 -4.033305 -1.483601  6.100469
60311 43882.0 -5533.002301 -2024.749721 -4060.862749 -3.973380 -1.461672  6.145057
60311 43892.0 -5572.434658 -2039.256134 -3999.192012 -3.913019 -1.439584  6.188979
60311 43902.0 -5611.261252 -2053.540866 -3937.085411 -3.852229 -1.417337  6.232229
60311 43912.0 -5649.477820 -2067.602350 -3874.549684 -3.791015 -1.394934  6.274803
60311 43922.0 -5687.080167 -2081.439041 -3811.591620 -3.729385 -1.372379  6.316696
60311 43932.0 -5724.064163 -2095.049420 -3748.218053 -3.667346 -1.349672  6.357903
60311 43942.0 -5760.425745 -2108.431992 -3684.435864 -3.604904 -1.326818  6.398419
60311 43952.0 -5796.160917 -2121.585286 -3620.251980 -3.542065 -1.303817  6.438241
60311 43962.0 -5831.265752 -2134.507857 -3555.673372 -3.478837 -1.280673  6.477363
60311 43972.0 -5865.736391 -2147.198284 -3490.707056 -3.415227 -1.257389  6.515782
60311 43982.0 -5899.569044 -2159.655172 -3425.360091 -3.351241 -1.233966  6.553493
60311 43992.0 -5932.759989 -2171.877151 -3359.639579 -3.286887 -1.210407  6.590491
60311 44002.0 -5965.305576 -2183.862877 -3293.552665 -3.222171 -1.186716  6.626773
60311 44012.0 -5997.202224 -2195.611031 -3227.106531 -3.157100 -1.162893  6.662334
60311 44022.0 -6028.446421 -2207.120320 -3160.308404 -3.091682 -1.138943  6.697171
60311 44032.0 -6059.034729 -2218.389477 -3093.165549 -3.025923 -1.114868  6.731279
60311 44042.0 -6088.963780 -2229.417261 -3025.685268 -2.959832 -1.090669  6.764655
60311 44052.0 -6118.230276 -2240.202458 -2957.874903 -2.893414 -1.066351  6.797295
60311 44062.0 -6146.830994 -2250.743880 -2889.741833 -2.826677 -1.041914  6.829195
60311 44072.0 -6174.762783 -2261.040365 -2821.293472 -2.759629 -1.017364  6.860353
60311 44082.0 -6202.022564 -2271.090779 -2752.537270 -2.692277 -0.992701  6.890763
60311 44092.0 -6228.607331 -2280.894013 -2683.480712 -2.624628 -0.967928  6.920423
60311 44102.0 -6254.514153 -2290.448986 -2614.131318 -2.556689 -0.943049  6.949330
60311 44112.0 -6279.740173 -2299.754646 -2544.496638 -2.488468 -0.918066  6.977480
60311 44122.0 -6304.282607 -2308.809964 -2474.584258 -2.419973 -0.892981  7.004869
60311 44132.0 -6328.138746 -2317.613942 -2404.401792 -2.351211 -0.867798  7.031496
60311 44142.0 -6351.305958 -2326.165609 -2333.956887 -2.282189 -0.842519  7.057357
60311 44152.0 -6373.781685 -2334.464019 -2263.257218 -2.212915 -0.817147  7.082448
60311 44162.0 -6395.563443 -2342.508257 -2192.310490 -2.143397 -0.791685  7.106768
60311 44172.0 -6416.648826 -2350.297434 -2121.124435 -2.073641 -0.766136  7.130313
60311 44182.0 -6437.035505 -2357.830689 -2049.706813 -2.003657 -0.740501  7.153081
60311 44192.0 -6456.721225 -2365.107189 -1978.065410 -1.933451 -0.714785  7.175069
60311 44202.0 -6475.703810 -2372.126130 -1906.208036 -1.863031 -0.688990  7.196275
60311 44212.0 -6493.981159 -2378.886736 -1834.142528 -1.792405 -0.663119  7.216696
60311 44222.0 -6511.551251 -2385.388258 -1761.876745 -1.721581 -0.637174  7.236329
60311 44232.0 -6528.412140 -2391.629977 -1689.418569 -1.650566 -0.611158  7.255174
60311 44242.0 -6544.561959 -2397.611202 -1616.775905 -1.579368 -0.585075  7.273227
60311 44252.0 -6559.998920 -2403.331270 -1543.956678 -1.507995 -0.558928  7.290486
60311 44262.0 -6574.721311 -2408.789548 -1470.968832 -1.436456 -0.532718  7.306950
60311 44272.0 -6588.727500 -2413.985431 -1397.820332 -1.364756 -0.506449  7.322617
60311 44282.0 -6602.015934 -2418.918341 -1324.519162 -1.292906 -0.480124  7.337484
60311 44292.0 -6614.585137 -2423.587733 -1251.073321 -1.220912 -0.453746  7.351551
60311 44302.0 -6626.433714 -2427.993087 -1177.490826 -1.148782 -0.427317  7.364815
60311 44312.0 -6637.560348 -2432.133914 -1103.779710 -1.076524 -0.400841  7.377275
60311 44322.0 -6647.963803 -2436.009754 -1029.948020 -1.004147 -0.374320  7.388929
60311 44332.0 -6657.642920 -2439.620176  -956.003817 -0.931658 -0.347758  7.399777
60311 44342.0 -6666.596622 -2442.964778  -881.955176 -0.859065 -0.321156  7.409817
60311 44352.0 -6674.823910 -2446.043186  -807.810182 -0.786377 -0.294520  7.419047
60311 44362.0 -6682.323867 -2448.855058  -733.576932 -0.713600 -0.267850  7.427468
60311 44372.0 -6689.095653 -2451.400080  -659.263535 -0.640744 -0.241150  7.435077
